[{"OBJECT_NAME":"XINGYUN-2 02","OBJECT_ID":"2020-028B","EPOCH":"2026-03-10T00:08:18.521088","MEAN_MOTION":15.11086378,"ECCENTRICITY":0.0009258,"INCLINATION":97.5114,"RA_OF_ASC_NODE":76.7595,"ARG_OF_PERICENTER":249.9829,"MEAN_ANOMALY":110.0404,"EPHEMERIS_TYPE":0,"CLASSIFICATION_TYPE":"U","NORAD_CAT_ID":45603,"ELEMENT_SET_NO":999,"REV_AT_EPOCH":31985,"BSTAR":0.00013296102,"MEAN_MOTION_DOT":2.163e-5,"MEAN_MOTION_DDOT":0},{"OBJECT_NAME":"STARLINK-3253","OBJECT_ID":"2022-005AJ","EPOCH":"2026-03-09T21:47:19.632768","MEAN_MOTION":15.08832242,"ECCENTRICITY":0.00014395,"INCLINATION":53.2174,"RA_OF_ASC_NODE":297.9407,"ARG_OF_PERICENTER":90.4272,"MEAN_ANOMALY":269.6885,"EPHEMERIS_TYPE":0,"CLASSIFICATION_TYPE":"U","NORAD_CAT_ID":51136,"ELEMENT_SET_NO":999,"REV_AT_EPOCH":22876,"BSTAR":6.534797e-6,"MEAN_MOTION_DOT":-1.84e-6,"MEAN_MOTION_DDOT":0}]
